[{"OBJECT_NAME":"STARLINK-3978","OBJECT_ID":"2022-052AP","EPOCH":"2026-03-09T19:29:35.321568","MEAN_MOTION":15.08844363,"ECCENTRICITY":0.00013055,"INCLINATION":53.2159,"RA_OF_ASC_NODE":258.5733,"ARG_OF_PERICENTER":100.3719,"MEAN_ANOMALY":259.7421,"EPHEMERIS_TYPE":0,"CLASSIFICATION_TYPE":"U","NORAD_CAT_ID":52635,"ELEMENT_SET_NO":999,"REV_AT_EPOCH":21115,"BSTAR":4.05284e-7,"MEAN_MOTION_DOT":-2.81e-6,"MEAN_MOTION_DDOT":0},{"OBJECT_NAME":"COSMOS 2251 DEB","OBJECT_ID":"1993-036EU","EPOCH":"2026-03-09T14:44:02.306976","MEAN_MOTION":15.10275873,"ECCENTRICITY":0.0002082,"INCLINATION":74.0027,"RA_OF_ASC_NODE":262.4484,"ARG_OF_PERICENTER":258.1067,"MEAN_ANOMALY":101.9891,"EPHEMERIS_TYPE":0,"CLASSIFICATION_TYPE":"U","NORAD_CAT_ID":33939,"ELEMENT_SET_NO":999,"REV_AT_EPOCH":90059,"BSTAR":0.0040153,"MEAN_MOTION_DOT":0.00066338,"MEAN_MOTION_DDOT":0}]
